[{"OBJECT_NAME":"CREW DRAGON 12","OBJECT_ID":"2026-031A","EPOCH":"2026-03-04T09:57:31.642848","MEAN_MOTION":15.48440114,"ECCENTRICITY":0.0008199,"INCLINATION":51.6315,"RA_OF_ASC_NODE":98.4344,"ARG_OF_PERICENTER":155.9283,"MEAN_ANOMALY":204.209,"EPHEMERIS_TYPE":0,"CLASSIFICATION_TYPE":"U","NORAD_CAT_ID":67796,"ELEMENT_SET_NO":999,"REV_AT_EPOCH":55545,"BSTAR":0.00019994,"MEAN_MOTION_DOT":0.00010377,"MEAN_MOTION_DDOT":0}]
