CREW DRAGON 12          
1 67796U 26031A   26063.41494957  .00010377  00000+0  19994-3 0  9999
2 67796  51.6315  98.4344 0008199 155.9283 204.2090 15.48440114555453
